{"type": "FeatureCollection", "features": [ {"type": "Feature", "properties": {"norad_id": 34529, "name": "IRIDIUM 33 DEB", "group": "iridium-33-debris", "lat": -51.138305279755386, "lon": 27.619305246616936, "alt_km": 767.1307405273692, "timestamp": "2025-12-20T09:36:02.033794+00:00", "meta": {"OBJECT_NAME": "IRIDIUM 33 DEB", "OBJECT_ID": "1997-051HW", "EPOCH": "2025-12-20T03:10:13.579104", "MEAN_MOTION": 14.40621204, "ECCENTRICITY": 0.0005683, "INCLINATION": 86.3633, "RA_OF_ASC_NODE": 32.2604, "ARG_OF_PERICENTER": 154.9999, "MEAN_ANOMALY": 205.1477, "EPHEMERIS_TYPE": 0, "CLASSIFICATION_TYPE": "U", "NORAD_CAT_ID": 34529, "ELEMENT_SET_NO": 999, "REV_AT_EPOCH": 88248, "BSTAR": 8.3295e-05, "MEAN_MOTION_DOT": 2.86e-06, "MEAN_MOTION_DDOT": 0}, "tle": {"line1": "1 34529U 97051HW  25354.13210161  .00000286  00000+0  83295-4 0  9995", "line2": "2 34529  86.3633  32.2604 0005683 154.9999 205.1477 14.40621204882489"}}, "geometry": {"type": "Point", "coordinates": [27.619305246616936, -51.138305279755386]}}, {"type": "Feature", "properties": {"norad_id": 34538, "name": "IRIDIUM 33 DEB", "group": "iridium-33-debris", "lat": -22.090284216834984, "lon": -176.28488784699837, "alt_km": 758.828305708791, "timestamp": "2025-12-20T09:36:02.033807+00:00", "meta": {"OBJECT_NAME": "IRIDIUM 33 DEB", "OBJECT_ID": "1997-051JF", "EPOCH": "2025-12-20T00:28:24.612384", "MEAN_MOTION": 14.42687495, "ECCENTRICITY": 0.003219, "INCLINATION": 86.2759, "RA_OF_ASC_NODE": 2.3669, "ARG_OF_PERICENTER": 302.8959, "MEAN_ANOMALY": 85.6227, "EPHEMERIS_TYPE": 0, "CLASSIFICATION_TYPE": "U", "NORAD_CAT_ID": 34538, "ELEMENT_SET_NO": 999, "REV_AT_EPOCH": 87861, "BSTAR": 0.00063105, "MEAN_MOTION_DOT": 2.13e-05, "MEAN_MOTION_DDOT": 0}, "tle": {"line1": "1 34538U 97051JF  25354.01972931  .00002130  00000+0  63105-3 0  9999", "line2": "2 34538  86.2759   2.3669 0032190 302.8959  85.6227 14.42687495878619"}}, "geometry": {"type": "Point", "coordinates": [-176.28488784699837, -22.090284216834984]}}, {"type": "Feature", "properties": {"norad_id": 34540, "name": "IRIDIUM 33 DEB", "group": "iridium-33-debris", "lat": 80.83380425292192, "lon": -32.325673380887714, "alt_km": 628.6858914253862, "timestamp": "2025-12-20T09:36:02.033817+00:00", "meta": {"OBJECT_NAME": "IRIDIUM 33 DEB", "OBJECT_ID": "1997-051JH", "EPOCH": "2025-12-19T20:29:06.527328", "MEAN_MOTION": 14.75455566, "ECCENTRICITY": 0.00175023, "INCLINATION": 86.3106, "RA_OF_ASC_NODE": 304.3534, "ARG_OF_PERICENTER": 135.0106, "MEAN_ANOMALY": 285.9801, "EPHEMERIS_TYPE": 0, "CLASSIFICATION_TYPE": "U", "NORAD_CAT_ID": 34540, "ELEMENT_SET_NO": 999, "REV_AT_EPOCH": 89126, "BSTAR": 0.00097623982, "MEAN_MOTION_DOT": 6.676e-05, "MEAN_MOTION_DDOT": 0}, "tle": {"line1": "1 34540U 97051JH  25353.85354777  .00006676  00000+0  97624-3 0  9997", "line2": "2 34540  86.3106 304.3534 0017502 135.0106 285.9801 14.75455566891262"}}, "geometry": {"type": "Point", "coordinates": [-32.325673380887714, 80.83380425292192]}}, {"type": "Feature", "properties": {"norad_id": 34648, "name": "IRIDIUM 33 DEB", "group": "iridium-33-debris", "lat": -85.87477142515523, "lon": -142.20469687930142, "alt_km": 730.682615678229, "timestamp": "2025-12-20T09:36:02.033827+00:00", "meta": {"OBJECT_NAME": "IRIDIUM 33 DEB", "OBJECT_ID": "1997-051JZ", "EPOCH": "2025-12-20T01:30:04.008960", "MEAN_MOTION": 14.11697564, "ECCENTRICITY": 0.0180411, "INCLINATION": 86.3908, "RA_OF_ASC_NODE": 278.9892, "ARG_OF_PERICENTER": 275.9673, "MEAN_ANOMALY": 82.0975, "EPHEMERIS_TYPE": 0, "CLASSIFICATION_TYPE": "U", "NORAD_CAT_ID": 34648, "ELEMENT_SET_NO": 999, "REV_AT_EPOCH": 85064, "BSTAR": 0.0043645, "MEAN_MOTION_DOT": 9.277e-05, "MEAN_MOTION_DDOT": 0}, "tle": {"line1": "1 34648U 97051JZ  25354.06254640  .00009277  00000+0  43645-2 0  9991", "line2": "2 34648  86.3908 278.9892 0180411 275.9673  82.0975 14.11697564850648"}}, "geometry": {"type": "Point", "coordinates": [-142.20469687930142, -85.87477142515523]}}, {"type": "Feature", "properties": {"norad_id": 34651, "name": "IRIDIUM 33 DEB", "group": "iridium-33-debris", "lat": 2.4387886561619863, "lon": 137.47730443237486, "alt_km": 910.1480304554998, "timestamp": "2025-12-20T09:36:02.033837+00:00", "meta": {"OBJECT_NAME": "IRIDIUM 33 DEB", "OBJECT_ID": "1997-051KC", "EPOCH": "2025-12-19T16:44:48.420096", "MEAN_MOTION": 14.25922062, "ECCENTRICITY": 0.01422464, "INCLINATION": 86.2827, "RA_OF_ASC_NODE": 137.6175, "ARG_OF_PERICENTER": 181.9677, "MEAN_ANOMALY": 178.0974, "EPHEMERIS_TYPE": 0, "CLASSIFICATION_TYPE": "U", "NORAD_CAT_ID": 34651, "ELEMENT_SET_NO": 999, "REV_AT_EPOCH": 85995, "BSTAR": 0.0022061693, "MEAN_MOTION_DOT": 5.865e-05, "MEAN_MOTION_DDOT": 0}, "tle": {"line1": "1 34651U 97051KC  25353.69778264  .00005865  00000+0  22062-2 0  9995", "line2": "2 34651  86.2827 137.6175 0142246 181.9677 178.0974 14.25922062859957"}}, "geometry": {"type": "Point", "coordinates": [137.47730443237486, 2.4387886561619863]}}, {"type": "Feature", "properties": {"norad_id": 34652, "name": "IRIDIUM 33 DEB", "group": "iridium-33-debris", "lat": -28.861279376309636, "lon": -25.43648907955171, "alt_km": 683.481105189052, "timestamp": "2025-12-20T09:36:02.033847+00:00", "meta": {"OBJECT_NAME": "IRIDIUM 33 DEB", "OBJECT_ID": "1997-051KD", "EPOCH": "2025-12-19T17:51:26.256096", "MEAN_MOTION": 14.62117993, "ECCENTRICITY": 0.00255284, "INCLINATION": 86.331, "RA_OF_ASC_NODE": 336.8822, "ARG_OF_PERICENTER": 272.5866, "MEAN_ANOMALY": 207.7977, "EPHEMERIS_TYPE": 0, "CLASSIFICATION_TYPE": "U", "NORAD_CAT_ID": 34652, "ELEMENT_SET_NO": 999, "REV_AT_EPOCH": 88586, "BSTAR": 0.00063186757, "MEAN_MOTION_DOT": 3.211e-05, "MEAN_MOTION_DDOT": 0}, "tle": {"line1": "1 34652U 97051KD  25353.74405389  .00003211  00000+0  63187-3 0  9994", "line2": "2 34652  86.3310 336.8822 0025528 272.5866 207.7977 14.62117993885860"}}, "geometry": {"type": "Point", "coordinates": [-25.43648907955171, -28.861279376309636]}}, {"type": "Feature", "properties": {"norad_id": 34690, "name": "IRIDIUM 33 DEB", "group": "iridium-33-debris", "lat": 1.3214915237590892, "lon": 33.74616453796871, "alt_km": 704.7293928763147, "timestamp": "2025-12-20T09:36:02.033857+00:00", "meta": {"OBJECT_NAME": "IRIDIUM 33 DEB", "OBJECT_ID": "1997-051KM", "EPOCH": "2025-12-19T02:30:15.635232", "MEAN_MOTION": 14.55118004, "ECCENTRICITY": 0.00100928, "INCLINATION": 86.3778, "RA_OF_ASC_NODE": 34.2255, "ARG_OF_PERICENTER": 8.472, "MEAN_ANOMALY": 50.0408, "EPHEMERIS_TYPE": 0, "CLASSIFICATION_TYPE": "U", "NORAD_CAT_ID": 34690, "ELEMENT_SET_NO": 999, "REV_AT_EPOCH": 88187, "BSTAR": 0.00032814485, "MEAN_MOTION_DOT": 1.438e-05, "MEAN_MOTION_DDOT": 0}, "tle": {"line1": "1 34690U 97051KM  25353.10434763  .00001438  00000+0  32814-3 0  9996", "line2": "2 34690  86.3778  34.2255 0010092   8.4720  50.0408 14.55118004881875"}}, "geometry": {"type": "Point", "coordinates": [33.74616453796871, 1.3214915237590892]}}, {"type": "Feature", "properties": {"norad_id": 34693, "name": "IRIDIUM 33 DEB", "group": "iridium-33-debris", "lat": -79.10888579544842, "lon": -79.6271574326503, "alt_km": 488.3598638148578, "timestamp": "2025-12-20T09:36:02.033867+00:00", "meta": {"OBJECT_NAME": "IRIDIUM 33 DEB", "OBJECT_ID": "1997-051KQ", "EPOCH": "2025-12-19T21:40:09.433344", "MEAN_MOTION": 15.29576103, "ECCENTRICITY": 0.0012454, "INCLINATION": 86.3023, "RA_OF_ASC_NODE": 300.2612, "ARG_OF_PERICENTER": 40.9264, "MEAN_ANOMALY": 23.8115, "EPHEMERIS_TYPE": 0, "CLASSIFICATION_TYPE": "U", "NORAD_CAT_ID": 34693, "ELEMENT_SET_NO": 999, "REV_AT_EPOCH": 89024, "BSTAR": 0.0029727, "MEAN_MOTION_DOT": 0.00086209, "MEAN_MOTION_DDOT": 0}, "tle": {"line1": "1 34693U 97051KQ  25353.90288696  .00086209  00000+0  29727-2 0  9996", "line2": "2 34693  86.3023 300.2612 0012454  40.9264  23.8115 15.29576103890246"}}, "geometry": {"type": "Point", "coordinates": [-79.6271574326503, -79.10888579544842]}}, {"type": "Feature", "properties": {"norad_id": 34696, "name": "IRIDIUM 33 DEB", "group": "iridium-33-debris", "lat": 59.29172792161214, "lon": 30.410015775429518, "alt_km": 662.5116766545707, "timestamp": "2025-12-20T09:36:02.033878+00:00", "meta": {"OBJECT_NAME": "IRIDIUM 33 DEB", "OBJECT_ID": "1997-051KT", "EPOCH": "2025-12-20T03:03:36.895968", "MEAN_MOTION": 14.65425134, "ECCENTRICITY": 0.0073881, "INCLINATION": 86.1833, "RA_OF_ASC_NODE": 24.0835, "ARG_OF_PERICENTER": 142.6074, "MEAN_ANOMALY": 281.0712, "EPHEMERIS_TYPE": 0, "CLASSIFICATION_TYPE": "U", "NORAD_CAT_ID": 34696, "ELEMENT_SET_NO": 999, "REV_AT_EPOCH": 86781, "BSTAR": 0.0025217, "MEAN_MOTION_DOT": 0.00014237, "MEAN_MOTION_DDOT": 0}, "tle": {"line1": "1 34696U 97051KT  25354.12751037  .00014237  00000+0  25217-2 0  9990", "line2": "2 34696  86.1833  24.0835 0073881 142.6074 281.0712 14.65425134867818"}}, "geometry": {"type": "Point", "coordinates": [30.410015775429518, 59.29172792161214]}}, {"type": "Feature", "properties": {"norad_id": 34765, "name": "IRIDIUM 33 DEB", "group": "iridium-33-debris", "lat": -12.850001845831379, "lon": 28.63776425557885, "alt_km": 772.3866474063689, "timestamp": "2025-12-20T09:36:02.033890+00:00", "meta": {"OBJECT_NAME": "IRIDIUM 33 DEB", "OBJECT_ID": "1997-051LJ", "EPOCH": "2025-12-18T13:21:25.941600", "MEAN_MOTION": 14.40479279, "ECCENTRICITY": 0.00160914, "INCLINATION": 86.3386, "RA_OF_ASC_NODE": 30.2656, "ARG_OF_PERICENTER": 191.4295, "MEAN_ANOMALY": 322.071, "EPHEMERIS_TYPE": 0, "CLASSIFICATION_TYPE": "U", "NORAD_CAT_ID": 34765, "ELEMENT_SET_NO": 999, "REV_AT_EPOCH": 87697, "BSTAR": 0.00029987235, "MEAN_MOTION_DOT": 9.74e-06, "MEAN_MOTION_DDOT": 0}, "tle": {"line1": "1 34765U 97051LJ  25352.55655025  .00000974  00000+0  29987-3 0  9994", "line2": "2 34765  86.3386  30.2656 0016091 191.4295 322.0710 14.40479279876970"}}, "geometry": {"type": "Point", "coordinates": [28.63776425557885, -12.850001845831379]}}]}